start=new Date('2021-11-23T00:00:00.000Z').valueOf();
sats=[{"PERIAPSIS":"545.705","ELEMENT_SET_NO":"999","MEAN_ELEMENT_THEORY":"SGP4","SITE":"AFETR","NORAD_CAT_ID":"48326","CLASSIFICATION_TYPE":"U","RA_OF_ASC_NODE":"300.7951","SEMIMAJOR_AXIS":"6925.362","RCS_SIZE":"LARGE","ARG_OF_PERICENTER":"47.5530","OBJECT_NAME":"STARLINK-2498","FILE":"3221430","OBJECT_TYPE":"PAYLOAD","REV_AT_EPOCH":"3228","TLE_LINE1":"1 48326U 21036BC  21326.65338780 -.00000328  00000-0 -30936-5 0  9990","PERIOD":"95.592","CENTER_NAME":"EARTH","TIME_SYSTEM":"UTC","OBJECT_ID":"2021-036BC","COUNTRY_CODE":"US","EPHEMERIS_TYPE":"0","GP_ID":"190269377","MEAN_MOTION_DOT":"-0.00000328","REF_FRAME":"TEME","MEAN_ANOMALY":"312.5644","ECCENTRICITY":"0.00021970","DECAY_DATE":null,"BSTAR":"-0.00000309360000","LAUNCH_DATE":"2021-04-29","TLE_LINE2":"2 48326  53.0557 300.7951 0002197  47.5530 312.5644 15.06395617 32281","MEAN_MOTION":"15.06395617","APOAPSIS":"548.748","MEAN_MOTION_DDOT":"0.0000000000000","INCLINATION":"53.0557","EPOCH":"2021-11-22T15:40:52.705920"},{"COUNTRY_CODE":"US","EPHEMERIS_TYPE":"0","OBJECT_ID":"2021-036BD","TIME_SYSTEM":"UTC","CENTER_NAME":"EARTH","ECCENTRICITY":"0.00018060","REF_FRAME":"TEME","MEAN_ANOMALY":"299.6846","GP_ID":"190265426","MEAN_MOTION_DOT":"0.00001703","TLE_LINE2":"2 48327  53.0553 302.2991 0001806  60.4323 299.6846 15.06392852 31645","DECAY_DATE":null,"LAUNCH_DATE":"2021-04-29","BSTAR":"0.00013322000000","EPOCH":"2021-11-22T07:37:52.538016","INCLINATION":"53.0553","APOAPSIS":"548.486","MEAN_MOTION_DDOT":"0.0000000000000","MEAN_MOTION":"15.06392852","CLASSIFICATION_TYPE":"U","NORAD_CAT_ID":"48327","SITE":"AFETR","ELEMENT_SET_NO":"999","PERIAPSIS":"545.985","MEAN_ELEMENT_THEORY":"SGP4","SEMIMAJOR_AXIS":"6925.370","RA_OF_ASC_NODE":"302.2991","ARG_OF_PERICENTER":"60.4323","OBJECT_NAME":"STARLINK-2502","RCS_SIZE":"LARGE","PERIOD":"95.593","TLE_LINE1":"1 48327U 21036BD  21326.31796919  .00001703  00000-0  13322-3 0  9990","REV_AT_EPOCH":"3164","OBJECT_TYPE":"PAYLOAD","FILE":"3221278"},{"INCLINATION":"53.0556","EPOCH":"2021-11-22T15:30:16.053696","MEAN_MOTION":"15.06394372","MEAN_MOTION_DDOT":"0.0000000000000","APOAPSIS":"548.392","BSTAR":"0.00001454100000","LAUNCH_DATE":"2021-04-29","DECAY_DATE":null,"TLE_LINE2":"2 48328  53.0556 300.8294 0001677  66.9710 293.1455 15.06394372 32281","ECCENTRICITY":"0.00016770","GP_ID":"190269406","MEAN_MOTION_DOT":"-0.00000065","REF_FRAME":"TEME","MEAN_ANOMALY":"293.1455","OBJECT_ID":"2021-036BE","EPHEMERIS_TYPE":"0","COUNTRY_CODE":"US","CENTER_NAME":"EARTH","TIME_SYSTEM":"UTC","REV_AT_EPOCH":"3228","TLE_LINE1":"1 48328U 21036BE  21326.64601914 -.00000065  00000-0  14541-4 0  9993","PERIOD":"95.592","FILE":"3221432","OBJECT_TYPE":"PAYLOAD","RCS_SIZE":"LARGE","OBJECT_NAME":"STARLINK-2504","ARG_OF_PERICENTER":"66.9710","SEMIMAJOR_AXIS":"6925.366","RA_OF_ASC_NODE":"300.8294","NORAD_CAT_ID":"48328","CLASSIFICATION_TYPE":"U","MEAN_ELEMENT_THEORY":"SGP4","ELEMENT_SET_NO":"999","PERIAPSIS":"546.069","SITE":"AFETR"},{"REF_FRAME":"TEME","MEAN_ANOMALY":"297.7709","GP_ID":"190268909","MEAN_MOTION_DOT":"0.00001676","ECCENTRICITY":"0.00017430","TIME_SYSTEM":"UTC","CENTER_NAME":"EARTH","COUNTRY_CODE":"US","EPHEMERIS_TYPE":"0","OBJECT_ID":"2021-036BF","APOAPSIS":"548.439","MEAN_MOTION_DDOT":"0.0000000000000","MEAN_MOTION":"15.06394018","EPOCH":"2021-11-22T15:24:57.684384","INCLINATION":"53.0560","TLE_LINE2":"2 48329  53.0560 300.8516 0001743  62.3457 297.7709 15.06394018 32285","DECAY_DATE":null,"BSTAR":"0.00013143000000","LAUNCH_DATE":"2021-04-29","RA_OF_ASC_NODE":"300.8516","SEMIMAJOR_AXIS":"6925.367","SITE":"AFETR","PERIAPSIS":"546.025","ELEMENT_SET_NO":"999","MEAN_ELEMENT_THEORY":"SGP4","CLASSIFICATION_TYPE":"U","NORAD_CAT_ID":"48329","OBJECT_TYPE":"PAYLOAD","FILE":"3221432","PERIOD":"95.593","TLE_LINE1":"1 48329U 21036BF  21326.64233431  .00001676  00000-0  13143-3 0  9993","REV_AT_EPOCH":"3228","OBJECT_NAME":"STARLINK-2510","ARG_OF_PERICENTER":"62.3457","RCS_SIZE":"LARGE"},{"EPHEMERIS_TYPE":"0","COUNTRY_CODE":"US","OBJECT_ID":"2021-036BG","TIME_SYSTEM":"UTC","CENTER_NAME":"EARTH","ECCENTRICITY":"0.00020530","MEAN_ANOMALY":"305.2180","REF_FRAME":"TEME","MEAN_MOTION_DOT":"-0.00000266","GP_ID":"190264683","TLE_LINE2":"2 48330  53.0564 302.0663 0002053  54.9001 305.2180 15.06396699 31650","LAUNCH_DATE":"2021-04-29","BSTAR":"0.00000106230000","DECAY_DATE":null,"EPOCH":"2021-11-22T08:57:29.385792","INCLINATION":"53.0564","MEAN_MOTION_DDOT":"0.0000000000000","APOAPSIS":"548.645","MEAN_MOTION":"15.06396699","CLASSIFICATION_TYPE":"U","NORAD_CAT_ID":"48330","SITE":"AFETR","MEAN_ELEMENT_THEORY":"SGP4","ELEMENT_SET_NO":"999","PERIAPSIS":"545.802","SEMIMAJOR_AXIS":"6925.359","RA_OF_ASC_NODE":"302.0663","ARG_OF_PERICENTER":"54.9001","OBJECT_NAME":"STARLINK-2501","RCS_SIZE":"LARGE","PERIOD":"95.592","REV_AT_EPOCH":"3165","TLE_LINE1":"1 48330U 21036BG  21326.37325678 -.00000266  00000-0  10623-5 0  9997","OBJECT_TYPE":"PAYLOAD","FILE":"3221278"},{"PERIOD":"95.592","REV_AT_EPOCH":"3164","TLE_LINE1":"1 48331U 21036BH  21326.30322315 -.00000279  00000-0  18062-6 0  9996","OBJECT_TYPE":"PAYLOAD","FILE":"3221278","OBJECT_NAME":"STARLINK-2514","ARG_OF_PERICENTER":"61.5344","RCS_SIZE":"LARGE","RA_OF_ASC_NODE":"302.3745","SEMIMAJOR_AXIS":"6925.363","CLASSIFICATION_TYPE":"U","NORAD_CAT_ID":"48331","SITE":"AFETR","PERIAPSIS":"545.958","ELEMENT_SET_NO":"999","MEAN_ELEMENT_THEORY":"SGP4","EPOCH":"2021-11-22T07:16:38.480160","INCLINATION":"53.0561","APOAPSIS":"548.498","MEAN_MOTION_DDOT":"0.0000000000000","MEAN_MOTION":"15.06395261","TLE_LINE2":"2 48331  53.0561 302.3745 0001834  61.5344 298.5829 15.06395261 31649","DECAY_DATE":null,"BSTAR":"0.00000018062000","LAUNCH_DATE":"2021-04-29","ECCENTRICITY":"0.00018340","MEAN_ANOMALY":"298.5829","REF_FRAME":"TEME","MEAN_MOTION_DOT":"-0.00000279","GP_ID":"190264926","COUNTRY_CODE":"US","EPHEMERIS_TYPE":"0","OBJECT_ID":"2021-036BH","TIME_SYSTEM":"UTC","CENTER_NAME":"EARTH"},{"RA_OF_ASC_NODE":"302.1021","SEMIMAJOR_AXIS":"6925.336","CLASSIFICATION_TYPE":"U","NORAD_CAT_ID":"48332","SITE":"AFETR","PERIAPSIS":"545.959","ELEMENT_SET_NO":"999","MEAN_ELEMENT_THEORY":"SGP4","PERIOD":"95.592","REV_AT_EPOCH":"3165","TLE_LINE1":"1 48332U 21036BJ  21326.36861789  .00001344  00000-0  10910-3 0  9990","OBJECT_TYPE":"PAYLOAD","FILE":"3221278","ARG_OF_PERICENTER":"65.6334","OBJECT_NAME":"STARLINK-2511","RCS_SIZE":"LARGE","ECCENTRICITY":"0.00017930","MEAN_ANOMALY":"294.4842","REF_FRAME":"TEME","GP_ID":"190264182","MEAN_MOTION_DOT":"0.00001344","COUNTRY_CODE":"US","EPHEMERIS_TYPE":"0","OBJECT_ID":"2021-036BJ","TIME_SYSTEM":"UTC","CENTER_NAME":"EARTH","EPOCH":"2021-11-22T08:50:48.585696","INCLINATION":"53.0539","APOAPSIS":"548.443","MEAN_MOTION_DDOT":"0.0000000000000","MEAN_MOTION":"15.06404028","TLE_LINE2":"2 48332  53.0539 302.1021 0001793  65.6334 294.4842 15.06404028 31651","DECAY_DATE":null,"BSTAR":"0.00010910000000","LAUNCH_DATE":"2021-04-29"},{"TLE_LINE2":"2 48333  53.0540 302.1224 0001774  57.6841 302.4320 15.06399524 31657","LAUNCH_DATE":"2021-04-29","BSTAR":"0.00003643800000","DECAY_DATE":null,"EPOCH":"2021-11-22T08:41:33.590976","INCLINATION":"53.0540","MEAN_MOTION_DDOT":"0.0000000000000","APOAPSIS":"548.444","MEAN_MOTION":"15.06399524","EPHEMERIS_TYPE":"0","COUNTRY_CODE":"US","OBJECT_ID":"2021-036BK","TIME_SYSTEM":"UTC","CENTER_NAME":"EARTH","ECCENTRICITY":"0.00017740","MEAN_ANOMALY":"302.4320","REF_FRAME":"TEME","GP_ID":"190263932","MEAN_MOTION_DOT":"0.00000261","ARG_OF_PERICENTER":"57.6841","OBJECT_NAME":"STARLINK-2518","RCS_SIZE":"LARGE","PERIOD":"95.592","TLE_LINE1":"1 48333U 21036BK  21326.36219434  .00000261  00000-0  36438-4 0  9996","REV_AT_EPOCH":"3165","OBJECT_TYPE":"PAYLOAD","FILE":"3221278","CLASSIFICATION_TYPE":"U","NORAD_CAT_ID":"48333","SITE":"AFETR","MEAN_ELEMENT_THEORY":"SGP4","PERIAPSIS":"545.986","ELEMENT_SET_NO":"999","SEMIMAJOR_AXIS":"6925.350","RA_OF_ASC_NODE":"302.1224"},{"EPOCH":"2021-11-22T08:36:16.145280","INCLINATION":"53.0541","APOAPSIS":"548.413","MEAN_MOTION_DDOT":"0.0000000000000","MEAN_MOTION":"15.06388732","TLE_LINE2":"2 48334  53.0541 302.1384 0001682  66.4467 293.6698 15.06388732 31654","DECAY_DATE":null,"BSTAR":"0.00005959100000","LAUNCH_DATE":"2021-04-29","ECCENTRICITY":"0.00016820","REF_FRAME":"TEME","MEAN_ANOMALY":"293.6698","MEAN_MOTION_DOT":"0.00000606","GP_ID":"190265184","COUNTRY_CODE":"US","EPHEMERIS_TYPE":"0","OBJECT_ID":"2021-036BL","TIME_SYSTEM":"UTC","CENTER_NAME":"EARTH","PERIOD":"95.593","TLE_LINE1":"1 48334U 21036BL  21326.35852020  .00000606  00000-0  59591-4 0  9998","REV_AT_EPOCH":"3165","OBJECT_TYPE":"PAYLOAD","FILE":"3221278","OBJECT_NAME":"STARLINK-2470","ARG_OF_PERICENTER":"66.4467","RCS_SIZE":"LARGE","SEMIMAJOR_AXIS":"6925.383","RA_OF_ASC_NODE":"302.1384","CLASSIFICATION_TYPE":"U","NORAD_CAT_ID":"48334","SITE":"AFETR","PERIAPSIS":"546.083","ELEMENT_SET_NO":"999","MEAN_ELEMENT_THEORY":"SGP4"},{"MEAN_ELEMENT_THEORY":"SGP4","ELEMENT_SET_NO":"999","PERIAPSIS":"545.933","SITE":"AFETR","NORAD_CAT_ID":"48335","CLASSIFICATION_TYPE":"U","RA_OF_ASC_NODE":"303.0478","SEMIMAJOR_AXIS":"6925.361","RCS_SIZE":"LARGE","OBJECT_NAME":"STARLINK-2441","ARG_OF_PERICENTER":"62.6997","FILE":"3221278","OBJECT_TYPE":"PAYLOAD","REV_AT_EPOCH":"3162","TLE_LINE1":"1 48335U 21036BM  21326.15578303 -.00000005  00000-0  18552-4 0  9992","PERIOD":"95.592","CENTER_NAME":"EARTH","TIME_SYSTEM":"UTC","OBJECT_ID":"2021-036BM","EPHEMERIS_TYPE":"0","COUNTRY_CODE":"US","GP_ID":"190265427","MEAN_MOTION_DOT":"-0.00000005","MEAN_ANOMALY":"297.4182","REF_FRAME":"TEME","ECCENTRICITY":"0.00018670","BSTAR":"0.00001855200000","LAUNCH_DATE":"2021-04-29","DECAY_DATE":null,"TLE_LINE2":"2 48335  53.0553 303.0478 0001867  62.6997 297.4182 15.06395868 31628","MEAN_MOTION":"15.06395868","MEAN_MOTION_DDOT":"0.0000000000000","APOAPSIS":"548.519","INCLINATION":"53.0553","EPOCH":"2021-11-22T03:44:19.653792"}];
